[{"OBJECT_NAME":"COSMOS 2493 (SKRL-756 1)","OBJECT_ID":"2013-078A","EPOCH":"2026-03-09T21:08:46.717728","MEAN_MOTION":15.01584319,"ECCENTRICITY":0.00118545,"INCLINATION":82.4165,"RA_OF_ASC_NODE":358.3033,"ARG_OF_PERICENTER":214.7485,"MEAN_ANOMALY":145.2966,"EPHEMERIS_TYPE":0,"CLASSIFICATION_TYPE":"U","NORAD_CAT_ID":39490,"ELEMENT_SET_NO":999,"REV_AT_EPOCH":66305,"BSTAR":0.00040276291,"MEAN_MOTION_DOT":5.252e-5,"MEAN_MOTION_DDOT":0},{"OBJECT_NAME":"HELIOS 2A","OBJECT_ID":"2004-049A","EPOCH":"2026-03-09T21:12:23.746752","MEAN_MOTION":15.02457036,"ECCENTRICITY":0.00022964,"INCLINATION":98.268,"RA_OF_ASC_NODE":116.0483,"ARG_OF_PERICENTER":298.4853,"MEAN_ANOMALY":61.6139,"EPHEMERIS_TYPE":0,"CLASSIFICATION_TYPE":"U","NORAD_CAT_ID":28492,"ELEMENT_SET_NO":999,"REV_AT_EPOCH":13885,"BSTAR":0.0002328623,"MEAN_MOTION_DOT":3.02e-5,"MEAN_MOTION_DDOT":0}]
